JILIN-1                 
1 40961U 15057D   26186.22253590  .00001127  00000+0  16183-3 0  9991
2 40961  97.6512 184.6942 0016302 199.6097 160.4490 14.78191441578272
JILIN-1 03              
1 41914U 17002B   26186.26340324  .00019545  00000+0  45873-3 0  9999
2 41914  97.1950 193.0974 0008010 105.8337 254.3795 15.42045957524649
JILIN-1 04              
1 43022U 17074A   26186.18355773  .00020941  00000+0  47733-3 0  9994
2 43022  97.4870 296.2825 0005107 126.0872 234.0849 15.42937059477048
JILIN-1 05              
1 43023U 17074B   26186.19010453  .00013744  00000+0  41751-3 0  9996
2 43023  97.4875 292.5919 0005877 152.9393 207.2157 15.34171523476766
JILIN-1 06              
1 43024U 17074C   26186.22945319  .00009213  00000+0  28300-3 0  9990
2 43024  97.4800 289.6178 0007310 164.7718 195.3746 15.33917697476608
JILIN-1 07              
1 43159U 18008E   26186.28224857  .00013863  00000+0  40934-3 0  9993
2 43159  97.1765 205.7306 0007900   7.2680 352.8677 15.35044708467777
JILIN-1 08              
1 43160U 18008F   26186.22971551  .00009247  00000+0  28385-3 0  9996
2 43160  97.1801 204.9760 0006527  28.0004 332.1589 15.33928195467716
JILIN-1 09              
1 43943U 19005B   26186.27666232  .00008047  00000+0  36928-3 0  9994
2 43943  97.4740 281.0868 0003109  57.4288 302.7247 15.20682209411899
JILIN-1 10              
1 43946U 19005E   26186.22689801  .00009712  00000+0  38096-3 0  9997
2 43946  97.4791 285.0339 0007582 204.7099 155.3777 15.25928883412067
JILIN-1 GAOFEN 3A       
1 44312U 19032C   26186.26766051  .00015982  00000+0  49933-3 0  9990
2 44312  44.9740 257.4019 0005000  34.1276 325.9929 15.33047198390619
JILIN-1 GAOFEN 2A       
1 44777U 19075A   26186.26910679  .00020747  00000+0  52412-3 0  9990
2 44777  97.4958 270.4873 0006175  30.9619 329.1990 15.39822752367666
JILIN-1 GAOFEN 2B       
1 44836U 19086A   26186.17549011  .00009729  00000+0  44181-3 0  9997
2 44836  97.4869 258.0554 0012533 253.9145 106.0711 15.20921025363221
JILIN-1 KUANFU 01       
1 45016U 20003A   26186.16851628  .00004780  00000+0  29116-3 0  9991
2 45016  97.5015 259.7735 0008502 234.7475 125.2960 15.10828030358043
JILIN-1 GAOFEN 3E       
1 46457U 20065D   26186.19222531  .00104891  00000+0  10109-2 0  9992
2 46457  97.2219 239.2439 0011646 103.1098 257.1463 15.66098688322574
JILIN-1 GAOFEN 3F       
1 46458U 20065E   26186.18641559  .00091310  00000+0  99506-3 0  9997
2 46458  97.2176 236.4833 0013065  90.7036 269.5720 15.63003588322513
JILIN-1 GAOFEN 3G       
1 46459U 20065F   26186.21547306  .00152039  00000+0  10084-2 0  9996
2 46459  97.2237 243.6373 0004861 333.8865  26.2154 15.75035818322777
